IRIDIUM 116             
1 43072U 17083C   24266.83313360  .00000243  00000+0  79753-4 0  9995
2 43072  86.3973 226.2338 0002304  88.8456 271.3004 14.34214707353537
IRIDIUM 130             
1 43073U 17083D   24267.42933646  .00000720  00000+0  25020-3 0  9994
2 43073  86.3983 226.1984 0002246  90.9284 269.2170 14.34216613353564
IRIDIUM 151             
1 43074U 17083E   24266.77604849  .00000407  00000+0  13817-3 0  9995
2 43074  86.3976 226.3011 0002408  81.9950 278.1518 14.34215651353498
IRIDIUM 134             
1 43075U 17083F   24266.95364625  .00000087  00000+0  24160-4 0  9999
2 43075  86.3979 226.2265 0002212  90.6311 269.5139 14.34214440353480
IRIDIUM 137             
1 43076U 17083G   24267.17563617  .00000812  00000+0  28274-3 0  9992
2 43076  86.3981 226.2135 0002812  84.7381 275.4136 14.34215253353584
IRIDIUM 141             
1 43077U 17083H   24266.95999738  .00000678  00000+0  23520-3 0  9994
2 43077  86.3975 226.1703 0002226  84.2717 275.8733 14.34215486353557
IRIDIUM 153             
1 43078U 17083J   24267.54008635  .00000500  00000+0  17142-3 0  9995
2 43078  86.4039 194.4434 0001921  70.1535 289.9867 14.34216902354741
IRIDIUM 131             
1 43079U 17083K   24267.43567870  .00000780  00000+0  27129-3 0  9991
2 43079  86.3981 226.1152 0002377  84.6260 275.5207 14.34217770353559
